STARLINK-31775          
1 60052U 24112Q   25204.30687887  .00000715  00000+0  36261-4 0  9997
2 60052  53.1607  63.7010 0001129  80.5544 279.5584 15.30198092 63471
STARLINK-31793          
1 60053U 24112R   25204.83570654  .00003766  00000+0  13913-3 0  9996
2 60053  53.1604  61.3124 0000854  91.9201 268.1897 15.30219843 63917
STARLINK-31735          
1 60054U 24112S   25204.88837731  .00000790  00000+0  38778-4 0  9995
2 60054  53.1607  60.9300 0001054 101.7116 258.4003 15.30198326 63823
STARLINK-31788          
1 60055U 24112T   25204.88521606 -.00000152  00000+0  69834-5 0  9998
2 60055  53.1614  60.9105 0001165  85.4796 274.6338 15.30194993 63883
STARLINK-31825          
1 60056U 24112U   25204.30371373  .00000881  00000+0  41880-4 0  9998
2 60056  53.1608  63.6830 0001161  86.1137 273.9996 15.30199573 63471
STARLINK-31437          
1 60057U 24112V   25204.83256756 -.00000306  00000+0  17820-5 0  9995
2 60057  53.1616  61.2921 0001138  86.9535 273.1596 15.30191885 63982
STARLINK-11181 [DTC]    
1 60059U 24113A   25204.50697164  .00001592  00000+0  17992-4 0  9990
2 60059  53.1587 241.1346 0001066  85.2710 274.8430 15.69715076 63563
STARLINK-11176 [DTC]    
1 60060U 24113B   25204.50206395  .00000473  00000+0  87589-5 0  9991
2 60060  53.1585 241.1016 0001060  85.9947 274.1192 15.69719417 63561
STARLINK-11167 [DTC]    
1 60061U 24113C   25204.36981466  .00002433  00000+0  24915-4 0  9996
2 60061  53.1583 241.6970 0001077  70.5656 289.5478 15.69726165 63845
STARLINK-11166 [DTC]    
1 60062U 24113D   25204.36491569  .00000886  00000+0  12168-4 0  9994
2 60062  53.1589 241.6650 0001169  87.8474 272.2678 15.69719416 63547
STARLINK-11165 [DTC]    
1 60063U 24113E   25204.80574089  .00036876  00000+0  30985-3 0  9997
2 60063  53.1587 239.4351 0002011  93.7084 266.4164 15.69554710 63818
STARLINK-11169 [DTC]    
1 60064U 24113F   25204.80078518  .00000815  00000+0  11579-4 0  9997
2 60064  53.1589 239.3997 0001200  84.9584 275.1571 15.69721870 63667
STARLINK-11102 [DTC]    
1 60065U 24113G   25204.79589442  .00000709  00000+0  10715-4 0  9992
2 60065  53.1581 239.3682 0001206  72.0772 288.0378 15.69708872 63805
STARLINK-11141 [DTC]    
1 60066U 24113H   25204.47263624 -.00000120  00000+0  38715-5 0  9998
2 60066  53.1586 240.9055 0001193  84.3000 275.8154 15.69714389 63567
STARLINK-11153 [DTC]    
1 60067U 24113J   25204.40415328  .00001451  00000+0  16823-4 0  9994
2 60067  53.1585 241.9213 0001100  80.9451 279.1692 15.69725672 63543
STARLINK-11170 [DTC]    
1 60068U 24113K   25204.52659342 -.00005558  00000+0 -41011-4 0  9995
2 60068  53.1592 241.2623 0000876  99.8064 260.3053 15.69734302 63563
STARLINK-11171 [DTC]    
1 60069U 24113L   25204.39434233  .00001740  00000+0  19210-4 0  9994
2 60069  53.1594 241.8543 0001199 102.4575 257.6577 15.69724057 63544
STARLINK-11186 [DTC]    
1 60070U 24113M   25204.38943729  .00001414  00000+0  16519-4 0  9997
2 60070  53.1586 241.8197 0001057  79.4440 280.6697 15.69723407 63951
STARLINK-11184 [DTC]    
1 60071U 24113N   25204.83022607 -.00000029  00000+0  46184-5 0  9995
2 60071  53.1587 239.6315 0001199  78.5475 281.5677 15.69719450 63866
STARLINK-32032          
1 60077U 24113U   25204.62846914 -.00000606  00000+0 -83343-5 0  9993
2 60077  53.1601 342.7991 0001110  97.4249 262.6878 15.30184069 62162
STARLINK-31441          
1 60091U 24117A   25204.47418525 -.00002079  00000+0 -58069-4 0  9991
2 60091  53.1617  21.7300 0001091  86.9893 273.1233 15.30206970 61795
STARLINK-32044          
1 60092U 24117B   25204.78070799  .00000898  00000+0  42440-4 0  9994
2 60092  53.1609  20.0867 0000955  90.2789 269.8321 15.30197076 61647
STARLINK-31239          
1 60093U 24117C   25204.50689937  .00001058  00000+0  47828-4 0  9999
2 60093  53.1616  21.9363 0001174  74.5988 285.5143 15.30198636 61793
STARLINK-32007          
1 60094U 24117D   25204.75444729 -.00003349  00000+0 -10103-3 0  9997
2 60094  53.1620  20.6377 0000658  69.8234 290.2837 15.30190331 61637
STARLINK-32028          
1 60095U 24117E   25204.81025556 -.00002254  00000+0 -63996-4 0  9991
2 60095  53.1615  20.2714 0000676  75.3243 284.7833 15.30203633 61819
STARLINK-32016          
1 60096U 24117F   25204.63330883  .00000309  00000+0  22566-4 0  9999
2 60096  53.1619  21.3033 0001222  75.6974 284.4162 15.30195388 61811
STARLINK-32003          
1 60097U 24117G   25204.53527741  .00000868  00000+0  41418-4 0  9997
2 60097  53.1612  21.3979 0001066  97.7348 262.3774 15.30195627 61809
STARLINK-32026          
1 60098U 24117H   25204.47946382  .00000750  00000+0  37449-4 0  9996
2 60098  53.1613  21.7615 0001186  92.9787 267.1349 15.30192504 61799
STARLINK-31732          
1 60099U 24117J   25204.51206136  .00000996  00000+0  45755-4 0  9999
2 60099  53.1613  21.2521 0001095  81.7436 278.3689 15.30197444 61808
STARLINK-31996          
1 60100U 24117K   25204.46046496  .00000614  00000+0  32854-4 0  9990
2 60100  53.1608  21.6412 0001058  94.1270 265.9851 15.30198967 61793
STARLINK-31999          
1 60101U 24117L   25203.91801035  .00001116  00000+0  49805-4 0  9990
2 60101  53.1620  24.6594 0001280  77.1888 282.9256 15.30203281 61700
STARLINK-31954          
1 60102U 24117M   25204.76077484 -.00000154  00000+0  69028-5 0  9990
2 60102  53.1617  20.6761 0000904  71.2464 288.8635 15.30192541 61584
STARLINK-32013          
1 60103U 24117N   25204.49634399  .00000699  00000+0  35728-4 0  9997
2 60103  53.1614  21.8693 0001179  80.5755 279.5379 15.30196547 61795
STARLINK-32009          
1 60104U 24117P   25204.50901308  .00000000  00000+0  12110-4 0  9993
2 60104  53.1623  21.9223 0000933  85.5727 274.5381 15.30200286 61791
STARLINK-32018          
1 60105U 24117Q   25204.81342993 -.00000759  00000+0 -13501-4 0  9995
2 60105  53.1617  20.2916 0001222  87.1991 272.9149 15.30184435 61868
STARLINK-32045          
1 60106U 24117R   25204.75127568 -.00001101  00000+0 -25045-4 0  9996
2 60106  53.1620  20.6148 0001112  89.2738 270.8391 15.30205555 61632
STARLINK-32035          
1 60107U 24117S   25204.21504110 -.00000039  00000+0  10809-4 0  9990
2 60107  53.1612  22.9538 0001039  98.2133 261.8986 15.30189768 61759
STARLINK-32042          
1 60108U 24117T   25204.46680206 -.00000750  00000+0 -13192-4 0  9998
2 60108  53.1613  21.6788 0000990 100.5370 259.5743 15.30193852 61797
STARLINK-32040          
1 60109U 24117U   25204.79970575  .00001232  00000+0  53714-4 0  9994
2 60109  53.1609  20.2040 0000978 100.0800 260.0312 15.30191943 61796
STARLINK-32001          
1 60110U 24117V   25204.78387541  .00000449  00000+0  27303-4 0  9994
2 60110  53.1616  20.1035 0001093  86.4149 273.6977 15.30193093 61796
STARLINK-32015          
1 60111U 24117W   25204.77754222  .00001703  00000+0  69639-4 0  9990
2 60111  53.1618  20.0633 0000848  70.6916 289.4177 15.30182858 61699
STARLINK-32024          
1 60112U 24117X   25204.79020484  .00000410  00000+0  25951-4 0  9992
2 60112  53.1608  20.1418 0001045  93.6193 266.4927 15.30201648 61814
STARLINK-11201 [DTC]    
1 60113U 24118A   25204.44578048  .00001400  00000+0  16405-4 0  9994
2 60113  53.1582 271.6686 0001000  80.8676 279.2455 15.69719533 61986
STARLINK-11198 [DTC]    
1 60114U 24118B   25204.37721472  .00000315  00000+0  74574-5 0  9994
2 60114  53.1585 271.9506 0001005  76.1664 283.9466 15.69708904 61977
STARLINK-11112 [DTC]    
1 60115U 24118C   25204.43597469  .00001541  00000+0  17573-4 0  9996
2 60115  53.1577 271.6022 0001636  82.6267 277.4936 15.69718184 61982
STARLINK-11210 [DTC]    
1 60116U 24118D   25204.55840399  .00000766  00000+0  11177-4 0  9995
2 60116  53.1587 270.9417 0000923  80.2651 279.8471 15.69722877 62001
STARLINK-11203 [DTC]    
1 60117U 24118E   25204.48985460 -.00003169  00000+0 -21329-4 0  9999
2 60117  53.1583 271.2251 0001253  71.1522 288.9632 15.69689231 61994
STARLINK-11177 [DTC]    
1 60118U 24118F   25204.48491579  .00001598  00000+0  18034-4 0  9994
2 60118  53.1572 271.1919 0001028  74.6561 285.4570 15.69728268 61991
STARLINK-11127 [DTC]    
1 60119U 24118G   25204.48001331  .00001884  00000+0  20398-4 0  9992
2 60119  53.1586 271.1613 0001068  93.5310 266.5830 15.69721983 61990
STARLINK-11164 [DTC]    
1 60120U 24118H   25204.47510468  .00002265  00000+0  23530-4 0  9994
2 60120  53.1581 271.1264 0000971  79.6427 280.4700 15.69726248 61995
STARLINK-11119 [DTC]    
1 60121U 24118J   25204.46039673  .00004529  00000+0  42190-4 0  9996
2 60121  53.1572 271.0271 0000939  91.7540 268.3585 15.69727760 61994
STARLINK-11157 [DTC]    
1 60122U 24118K   25204.46529590  .00001473  00000+0  17002-4 0  9998
2 60122  53.1581 271.0598 0001058  81.0141 279.0997 15.69726618 61996
STARLINK-11162 [DTC]    
1 60123U 24118L   25204.45549125  .00000257  00000+0  69805-5 0  9992
2 60123  53.1579 270.9951 0001024  87.6303 272.4832 15.69718642 61993
STARLINK-11161 [DTC]    
1 60124U 24118M   25204.45068675  .00000480  00000+0  88149-5 0  9999
2 60124  53.1581 271.6982 0001115  88.6014 271.5132 15.69720320 61988
STARLINK-11160 [DTC]    
1 60125U 24118N   25204.47021232  .00000289  00000+0  72458-5 0  9993
2 60125  53.1590 271.0928 0001092  88.4782 271.6360 15.69708665 61990
STARLINK-31846          
1 60126U 24118P   25204.74072574  .00002283  00000+0  89150-4 0  9991
2 60126  53.1620  10.1378 0001168  79.0547 281.0585 15.30210426 61754
STARLINK-31840          
1 60127U 24118Q   25204.74706077  .00002577  00000+0  99081-4 0  9994
2 60127  53.1617  10.1792 0001223  81.0828 279.0311 15.30207251 61686
STARLINK-31813          
1 60128U 24118R   25204.74390484  .00000176  00000+0  18077-4 0  9995
2 60128  53.1617  10.1586 0001118  77.5784 282.5342 15.30194886 61695
STARLINK-31845          
1 60129U 24118S   25204.74126013 -.00000182  00000+0  59706-5 0  9994
2 60129  53.1616   8.0051 0001015  76.2152 283.8962 15.30201773 61707
